[{"OBJECT_NAME":"ZHEDA PIXING 1B","OBJECT_ID":"2010-047B","EPOCH":"2026-03-09T21:53:02.003136","MEAN_MOTION":14.90822357,"ECCENTRICITY":0.0017982,"INCLINATION":97.9405,"RA_OF_ASC_NODE":46.4307,"ARG_OF_PERICENTER":246.9995,"MEAN_ANOMALY":112.9326,"EPHEMERIS_TYPE":0,"CLASSIFICATION_TYPE":"U","NORAD_CAT_ID":37166,"ELEMENT_SET_NO":999,"REV_AT_EPOCH":83562,"BSTAR":0.00029479,"MEAN_MOTION_DOT":2.852e-5,"MEAN_MOTION_DDOT":0},{"OBJECT_NAME":"SL-14 R\/B","OBJECT_ID":"1983-037B","EPOCH":"2026-03-09T23:05:44.656224","MEAN_MOTION":14.86187856,"ECCENTRICITY":0.00176875,"INCLINATION":82.5045,"RA_OF_ASC_NODE":231.5305,"ARG_OF_PERICENTER":36.2922,"MEAN_ANOMALY":323.949,"EPHEMERIS_TYPE":0,"CLASSIFICATION_TYPE":"U","NORAD_CAT_ID":14033,"ELEMENT_SET_NO":999,"REV_AT_EPOCH":93138,"BSTAR":7.5110195e-5,"MEAN_MOTION_DOT":6.85e-6,"MEAN_MOTION_DDOT":0}]
